start=new Date('2022-06-10T00:00:00.000Z').valueOf();
sats=[{"SEMIMAJOR_AXIS":"6817.823","APOAPSIS":"441.536","MEAN_ANOMALY":"325.0784","OBJECT_NAME":"STARLINK-2350","CENTER_NAME":"EARTH","SITE":"AFETR","ECCENTRICITY":"0.00027110","EPOCH":"2022-06-09T17:05:02.676192","TIME_SYSTEM":"UTC","CLASSIFICATION_TYPE":"U","TLE_LINE1":"1 47890U 21021AG  22160.71183653  .00011487  00000-0  27286-3 0  9998","MEAN_ELEMENT_THEORY":"SGP4","FILE":"3488231","MEAN_MOTION_DOT":"0.00011487","MEAN_MOTION_DDOT":"0.0000000000000","ARG_OF_PERICENTER":"35.0399","BSTAR":"0.00027286000000","OBJECT_ID":"2021-021AG","EPHEMERIS_TYPE":"0","LAUNCH_DATE":"2021-03-14","REF_FRAME":"TEME","NORAD_CAT_ID":"47890","TLE_LINE2":"2 47890  53.0530 251.0624 0002711  35.0399 325.0784 15.42176986 70034","REV_AT_EPOCH":"7003","INCLINATION":"53.0530","OBJECT_TYPE":"PAYLOAD","PERIOD":"93.374","ELEMENT_SET_NO":"999","RCS_SIZE":"LARGE","COUNTRY_CODE":"US","GP_ID":"205740007","MEAN_MOTION":"15.42176986","DECAY_DATE":null,"PERIAPSIS":"437.839","RA_OF_ASC_NODE":"251.0624"},{"TLE_LINE1":"1 47891U 21021AH  22160.80652303  .00000036  00000-0  21307-4 0  9999","CLASSIFICATION_TYPE":"U","FILE":"3489040","MEAN_ELEMENT_THEORY":"SGP4","MEAN_MOTION_DOT":"0.00000036","MEAN_MOTION_DDOT":"0.0000000000000","SEMIMAJOR_AXIS":"6925.358","OBJECT_NAME":"STARLINK-2351","CENTER_NAME":"EARTH","APOAPSIS":"548.302","MEAN_ANOMALY":"287.7075","EPOCH":"2022-06-09T19:21:23.589792","ECCENTRICITY":"0.00015590","SITE":"AFETR","TIME_SYSTEM":"UTC","INCLINATION":"53.0557","REV_AT_EPOCH":"6989","NORAD_CAT_ID":"47891","REF_FRAME":"TEME","TLE_LINE2":"2 47891  53.0557 306.7803 0001559  72.4084 287.7075 15.06397004 69891","ELEMENT_SET_NO":"999","OBJECT_TYPE":"PAYLOAD","PERIOD":"95.592","RCS_SIZE":"LARGE","GP_ID":"205781198","MEAN_MOTION":"15.06397004","COUNTRY_CODE":"US","RA_OF_ASC_NODE":"306.7803","PERIAPSIS":"546.143","DECAY_DATE":null,"ARG_OF_PERICENTER":"72.4084","BSTAR":"0.00002130700000","EPHEMERIS_TYPE":"0","OBJECT_ID":"2021-021AH","LAUNCH_DATE":"2021-03-14"},{"OBJECT_ID":"2021-021AJ","BSTAR":"0.00002217200000","EPHEMERIS_TYPE":"0","ARG_OF_PERICENTER":"46.1310","LAUNCH_DATE":"2021-03-14","GP_ID":"205779946","MEAN_MOTION":"15.16898391","COUNTRY_CODE":"US","RCS_SIZE":"LARGE","RA_OF_ASC_NODE":"298.8465","PERIAPSIS":"513.956","DECAY_DATE":null,"REV_AT_EPOCH":"6984","INCLINATION":"53.0562","TLE_LINE2":"2 47892  53.0562 298.8465 0001838  46.1310 313.9835 15.16898391 69840","NORAD_CAT_ID":"47892","REF_FRAME":"TEME","ELEMENT_SET_NO":"999","PERIOD":"94.931","OBJECT_TYPE":"PAYLOAD","EPOCH":"2022-06-09T19:05:02.429664","ECCENTRICITY":"0.00018380","SITE":"AFETR","TIME_SYSTEM":"UTC","SEMIMAJOR_AXIS":"6893.358","CENTER_NAME":"EARTH","OBJECT_NAME":"STARLINK-2352","APOAPSIS":"516.490","MEAN_ANOMALY":"313.9835","MEAN_MOTION_DOT":"0.00000130","MEAN_MOTION_DDOT":"0.0000000000000","TLE_LINE1":"1 47892U 21021AJ  22160.79516701  .00000130  00000-0  22172-4 0  9995","CLASSIFICATION_TYPE":"U","FILE":"3489040","MEAN_ELEMENT_THEORY":"SGP4"},{"EPOCH":"2022-06-09T18:19:03.088416","ECCENTRICITY":"0.00018350","SITE":"AFETR","TIME_SYSTEM":"UTC","SEMIMAJOR_AXIS":"6925.402","CENTER_NAME":"EARTH","OBJECT_NAME":"STARLINK-2354","MEAN_ANOMALY":"296.5356","APOAPSIS":"548.538","MEAN_MOTION_DOT":"-0.00000708","MEAN_MOTION_DDOT":"0.0000000000000","TLE_LINE1":"1 47894U 21021AL  22160.76323019 -.00000708  00000-0 -28674-4 0  9998","CLASSIFICATION_TYPE":"U","FILE":"3489040","MEAN_ELEMENT_THEORY":"SGP4","BSTAR":"-0.00002867400000","OBJECT_ID":"2021-021AL","EPHEMERIS_TYPE":"0","ARG_OF_PERICENTER":"63.5821","LAUNCH_DATE":"2021-03-14","MEAN_MOTION":"15.06382515","GP_ID":"205780196","COUNTRY_CODE":"US","RCS_SIZE":"LARGE","RA_OF_ASC_NODE":"296.9784","PERIAPSIS":"545.996","DECAY_DATE":null,"INCLINATION":"53.0562","REV_AT_EPOCH":"6981","TLE_LINE2":"2 47894  53.0562 296.9784 0001835  63.5821 296.5356 15.06382515 69818","NORAD_CAT_ID":"47894","REF_FRAME":"TEME","ELEMENT_SET_NO":"999","PERIOD":"95.593","OBJECT_TYPE":"PAYLOAD"},{"TLE_LINE1":"1 47895U 21021AM  22160.77427022 -.00001016  00000-0 -49323-4 0  9996","CLASSIFICATION_TYPE":"U","MEAN_ELEMENT_THEORY":"SGP4","FILE":"3489040","MEAN_MOTION_DOT":"-0.00001016","MEAN_MOTION_DDOT":"0.0000000000000","SEMIMAJOR_AXIS":"6925.347","CENTER_NAME":"EARTH","OBJECT_NAME":"STARLINK-2355","APOAPSIS":"548.191","MEAN_ANOMALY":"285.8353","EPOCH":"2022-06-09T18:34:56.947008","SITE":"AFETR","ECCENTRICITY":"0.00014140","TIME_SYSTEM":"UTC","REV_AT_EPOCH":"6984","INCLINATION":"53.0538","TLE_LINE2":"2 47895  53.0538 296.9307 0001414  74.2792 285.8353 15.06400528 69848","NORAD_CAT_ID":"47895","REF_FRAME":"TEME","ELEMENT_SET_NO":"999","PERIOD":"95.592","OBJECT_TYPE":"PAYLOAD","COUNTRY_CODE":"US","GP_ID":"205780948","MEAN_MOTION":"15.06400528","RCS_SIZE":"LARGE","RA_OF_ASC_NODE":"296.9307","DECAY_DATE":null,"PERIAPSIS":"546.233","BSTAR":"-0.00004932300000","OBJECT_ID":"2021-021AM","EPHEMERIS_TYPE":"0","ARG_OF_PERICENTER":"74.2792","LAUNCH_DATE":"2021-03-14"},{"EPOCH":"2022-06-09T20:00:32.808384","ECCENTRICITY":"0.00015030","SITE":"AFETR","TIME_SYSTEM":"UTC","SEMIMAJOR_AXIS":"6925.367","CENTER_NAME":"EARTH","OBJECT_NAME":"STARLINK-2356","APOAPSIS":"548.273","MEAN_ANOMALY":"292.4451","MEAN_MOTION_DOT":"-0.00000594","MEAN_MOTION_DDOT":"0.0000000000000","TLE_LINE1":"1 47896U 21021AN  22160.83371306 -.00000594  00000-0 -20964-4 0  9997","CLASSIFICATION_TYPE":"U","MEAN_ELEMENT_THEORY":"SGP4","FILE":"3489040","BSTAR":"-0.00002096400000","EPHEMERIS_TYPE":"0","OBJECT_ID":"2021-021AN","ARG_OF_PERICENTER":"67.6698","LAUNCH_DATE":"2021-03-14","COUNTRY_CODE":"US","GP_ID":"205781699","MEAN_MOTION":"15.06393986","RCS_SIZE":"LARGE","RA_OF_ASC_NODE":"311.6631","DECAY_DATE":null,"PERIAPSIS":"546.191","INCLINATION":"53.0539","REV_AT_EPOCH":"6961","TLE_LINE2":"2 47896  53.0539 311.6631 0001503  67.6698 292.4451 15.06393986 69612","REF_FRAME":"TEME","NORAD_CAT_ID":"47896","ELEMENT_SET_NO":"999","PERIOD":"95.593","OBJECT_TYPE":"PAYLOAD"},{"CENTER_NAME":"EARTH","OBJECT_NAME":"STARLINK-2357","APOAPSIS":"548.222","MEAN_ANOMALY":"290.3919","SEMIMAJOR_AXIS":"6925.337","TIME_SYSTEM":"UTC","EPOCH":"2022-06-09T20:09:07.406784","ECCENTRICITY":"0.00014740","SITE":"AFETR","MEAN_ELEMENT_THEORY":"SGP4","FILE":"3489040","TLE_LINE1":"1 47897U 21021AP  22160.83966906 -.00000144  00000-0  92283-5 0  9998","CLASSIFICATION_TYPE":"U","MEAN_MOTION_DDOT":"0.0000000000000","MEAN_MOTION_DOT":"-0.00000144","LAUNCH_DATE":"2021-03-14","BSTAR":"0.00000922830000","OBJECT_ID":"2021-021AP","EPHEMERIS_TYPE":"0","ARG_OF_PERICENTER":"69.7229","ELEMENT_SET_NO":"999","PERIOD":"95.592","OBJECT_TYPE":"PAYLOAD","REV_AT_EPOCH":"6988","INCLINATION":"53.0550","TLE_LINE2":"2 47897  53.0550 296.6120 0001474  69.7229 290.3919 15.06403926 69882","NORAD_CAT_ID":"47897","REF_FRAME":"TEME","RA_OF_ASC_NODE":"296.6120","PERIAPSIS":"546.181","DECAY_DATE":null,"MEAN_MOTION":"15.06403926","GP_ID":"205780447","COUNTRY_CODE":"US","RCS_SIZE":"LARGE"},{"SEMIMAJOR_AXIS":"6925.383","APOAPSIS":"548.266","MEAN_ANOMALY":"281.2215","OBJECT_NAME":"STARLINK-2358","CENTER_NAME":"EARTH","SITE":"AFETR","ECCENTRICITY":"0.00014710","EPOCH":"2022-06-09T18:24:21.080160","TIME_SYSTEM":"UTC","CLASSIFICATION_TYPE":"U","TLE_LINE1":"1 47898U 21021AQ  22160.76691065 -.00001880  00000-0 -10740-3 0  9997","FILE":"3489040","MEAN_ELEMENT_THEORY":"SGP4","MEAN_MOTION_DOT":"-0.00001880","MEAN_MOTION_DDOT":"0.0000000000000","ARG_OF_PERICENTER":"78.8939","EPHEMERIS_TYPE":"0","BSTAR":"-0.00010740000000","OBJECT_ID":"2021-021AQ","LAUNCH_DATE":"2021-03-14","REF_FRAME":"TEME","NORAD_CAT_ID":"47898","TLE_LINE2":"2 47898  53.0551 296.9662 0001471  78.8939 281.2215 15.06388861 69815","REV_AT_EPOCH":"6981","INCLINATION":"53.0551","OBJECT_TYPE":"PAYLOAD","PERIOD":"95.593","ELEMENT_SET_NO":"999","RCS_SIZE":"LARGE","GP_ID":"205780697","MEAN_MOTION":"15.06388861","COUNTRY_CODE":"US","PERIAPSIS":"546.229","DECAY_DATE":null,"RA_OF_ASC_NODE":"296.9662"},{"MEAN_MOTION_DDOT":"0.0000000000000","MEAN_MOTION_DOT":"-0.00002670","FILE":"3489040","MEAN_ELEMENT_THEORY":"SGP4","CLASSIFICATION_TYPE":"U","TLE_LINE1":"1 47899U 21021AR  22160.76319988 -.00002670  00000-0 -16046-3 0  9992","TIME_SYSTEM":"UTC","ECCENTRICITY":"0.00015020","SITE":"AFETR","EPOCH":"2022-06-09T18:19:00.469632","APOAPSIS":"548.286","MEAN_ANOMALY":"287.1431","CENTER_NAME":"EARTH","OBJECT_NAME":"STARLINK-2359","SEMIMAJOR_AXIS":"6925.381","DECAY_DATE":null,"PERIAPSIS":"546.206","RA_OF_ASC_NODE":"286.9607","MEAN_MOTION":"15.06389361","GP_ID":"205781449","COUNTRY_CODE":"US","RCS_SIZE":"LARGE","PERIOD":"95.593","OBJECT_TYPE":"PAYLOAD","ELEMENT_SET_NO":"999","TLE_LINE2":"2 47899  53.0548 286.9607 0001502  72.9722 287.1431 15.06389361 70015","NORAD_CAT_ID":"47899","REF_FRAME":"TEME","REV_AT_EPOCH":"7001","INCLINATION":"53.0548","LAUNCH_DATE":"2021-03-14","BSTAR":"-0.00016046000000","OBJECT_ID":"2021-021AR","EPHEMERIS_TYPE":"0","ARG_OF_PERICENTER":"72.9722"},{"ELEMENT_SET_NO":"999","PERIOD":"95.593","OBJECT_TYPE":"PAYLOAD","REV_AT_EPOCH":"6987","INCLINATION":"53.0546","TLE_LINE2":"2 47900  53.0546 296.8680 0001613  65.0156 295.1001 15.06388484 69873","NORAD_CAT_ID":"47900","REF_FRAME":"TEME","RA_OF_ASC_NODE":"296.8680","PERIAPSIS":"546.132","DECAY_DATE":null,"GP_ID":"205781199","MEAN_MOTION":"15.06388484","COUNTRY_CODE":"US","RCS_SIZE":"LARGE","LAUNCH_DATE":"2021-03-14","BSTAR":"-0.00008772900000","OBJECT_ID":"2021-021AS","EPHEMERIS_TYPE":"0","ARG_OF_PERICENTER":"65.0156","FILE":"3489040","MEAN_ELEMENT_THEORY":"SGP4","TLE_LINE1":"1 47900U 21021AS  22160.78808002 -.00001588  00000-0 -87729-4 0  9991","CLASSIFICATION_TYPE":"U","MEAN_MOTION_DDOT":"0.0000000000000","MEAN_MOTION_DOT":"-0.00001588","CENTER_NAME":"EARTH","OBJECT_NAME":"STARLINK-2360","APOAPSIS":"548.366","MEAN_ANOMALY":"295.1001","SEMIMAJOR_AXIS":"6925.384","TIME_SYSTEM":"UTC","EPOCH":"2022-06-09T18:54:50.113728","SITE":"AFETR","ECCENTRICITY":"0.00016130"}];
